STARLINK-36795          
1 67809U 26032N   26075.03147289  .00331620  00000+0  21307-2 0  9996
2 67809  97.2831 261.8586 0001559  54.1647 305.9763 15.75279798  5788
STARLINK-36807          
1 67810U 26032P   26075.07910207 -.00009106  00000+0 -60168-4 0  9993
2 67810  97.2836 261.9474 0002549  80.0108 280.1445 15.75215599  5793
STARLINK-36733          
1 67811U 26032Q   26075.76839289  .00226619  00000+0  14719-2 0  9997
2 67811  97.2835 262.6928 0001731 116.5596 243.5847 15.75321182  5901
STARLINK-36377          
1 67812U 26032R   26075.06711748  .00328401  00000+0  21172-2 0  9993
2 67812  97.2835 261.9635 0001329  79.8562 280.2853 15.75209538  5798
STARLINK-36732          
1 67813U 26032S   26075.07206051  .00143832  00000+0  94866-3 0  9995
2 67813  97.2836 261.9557 0001681  88.9095 271.2362 15.75198600  5798
STARLINK-36767          
1 67814U 26032T   26075.79062490  .00209934  00000+0  13714-2 0  9990
2 67814  97.2814 262.6598 0001244  49.0064 311.1309 15.75234037  5900
STARLINK-36797          
1 67815U 26032U   26075.78180230  .00263447  00000+0  17038-2 0  9995
2 67815  97.2825 262.6744 0002013  91.9160 268.2336 15.75317616  5901
STARLINK-36343          
1 67816U 26032V   26075.76203990  .00195056  00000+0  12768-2 0  9998
2 67816  97.2838 262.6992 0001366  94.2963 265.8458 15.75229171  5904
STARLINK-36756          
1 67817U 26032W   26075.07417337  .00116672  00000+0  77018-3 0  9992
2 67817  97.2824 261.9522 0001042 110.1346 250.0032 15.75258237  5780
STARLINK-36346          
1 67818U 26032X   26075.24958765  .00266117  00000+0  17210-2 0  9994
2 67818  97.2842 262.1744 0003091  47.7112 312.4415 15.75308386  5826
STARLINK-36788          
1 67819U 26032Y   26075.78392027  .00248718  00000+0  16164-2 0  9991
2 67819  97.2820 262.6704 0003362  93.1738 266.9912 15.75242245  5909
STARLINK-36353          
1 67820U 26032Z   26075.78004465  .00250348  00000+0  16217-2 0  9990
2 67820  97.2828 262.6757 0001323 148.4738 211.6606 15.75316788  5907
