CCSDS_OMM_VERS = 2.0
CREATION_DATE  = 
ORIGINATOR     = 

OBJECT_NAME    = STARLINK-36795
OBJECT_ID      = 2026-032N
CENTER_NAME    = EARTH
REF_FRAME      = TEME
TIME_SYSTEM    = UTC
MEAN_ELEMENT_THEORY = SGP/SGP4

EPOCH          = 2026-03-16T00:45:19.257696
MEAN_MOTION    = 15.75279798
ECCENTRICITY   = .00015596
INCLINATION    = 97.2831
RA_OF_ASC_NODE = 261.8586
ARG_OF_PERICENTER = 54.1647
MEAN_ANOMALY   = 305.9763

EPHEMERIS_TYPE = 0
CLASSIFICATION_TYPE = U
NORAD_CAT_ID   = 67809
ELEMENT_SET_NO = 999
REV_AT_EPOCH   = 578
BSTAR          = .21306909E-2
MEAN_MOTION_DOT = .33162E-2
MEAN_MOTION_DDOT = 0

CCSDS_OMM_VERS = 2.0
CREATION_DATE  = 
ORIGINATOR     = 

OBJECT_NAME    = STARLINK-36807
OBJECT_ID      = 2026-032P
CENTER_NAME    = EARTH
REF_FRAME      = TEME
TIME_SYSTEM    = UTC
MEAN_ELEMENT_THEORY = SGP/SGP4

EPOCH          = 2026-03-16T01:53:54.418848
MEAN_MOTION    = 15.75215599
ECCENTRICITY   = .0002549
INCLINATION    = 97.2836
RA_OF_ASC_NODE = 261.9474
ARG_OF_PERICENTER = 80.0108
MEAN_ANOMALY   = 280.1445

EPHEMERIS_TYPE = 0
CLASSIFICATION_TYPE = U
NORAD_CAT_ID   = 67810
ELEMENT_SET_NO = 999
REV_AT_EPOCH   = 579
BSTAR          = -.60167629E-4
MEAN_MOTION_DOT = -.9106E-4
MEAN_MOTION_DDOT = 0

CCSDS_OMM_VERS = 2.0
CREATION_DATE  = 
ORIGINATOR     = 

OBJECT_NAME    = STARLINK-36733
OBJECT_ID      = 2026-032Q
CENTER_NAME    = EARTH
REF_FRAME      = TEME
TIME_SYSTEM    = UTC
MEAN_ELEMENT_THEORY = SGP/SGP4

EPOCH          = 2026-03-16T18:26:29.145696
MEAN_MOTION    = 15.75321182
ECCENTRICITY   = .0001731
INCLINATION    = 97.2835
RA_OF_ASC_NODE = 262.6928
ARG_OF_PERICENTER = 116.5596
MEAN_ANOMALY   = 243.5847

EPHEMERIS_TYPE = 0
CLASSIFICATION_TYPE = U
NORAD_CAT_ID   = 67811
ELEMENT_SET_NO = 999
REV_AT_EPOCH   = 590
BSTAR          = .14719E-2
MEAN_MOTION_DOT = .226619E-2
MEAN_MOTION_DDOT = 0

CCSDS_OMM_VERS = 2.0
CREATION_DATE  = 
ORIGINATOR     = 

OBJECT_NAME    = STARLINK-36377
OBJECT_ID      = 2026-032R
CENTER_NAME    = EARTH
REF_FRAME      = TEME
TIME_SYSTEM    = UTC
MEAN_ELEMENT_THEORY = SGP/SGP4

EPOCH          = 2026-03-16T01:36:38.950272
MEAN_MOTION    = 15.75209538
ECCENTRICITY   = .00013298
INCLINATION    = 97.2835
RA_OF_ASC_NODE = 261.9635
ARG_OF_PERICENTER = 79.8562
MEAN_ANOMALY   = 280.2853

EPHEMERIS_TYPE = 0
CLASSIFICATION_TYPE = U
NORAD_CAT_ID   = 67812
ELEMENT_SET_NO = 999
REV_AT_EPOCH   = 579
BSTAR          = .21172215E-2
MEAN_MOTION_DOT = .328401E-2
MEAN_MOTION_DDOT = 0

CCSDS_OMM_VERS = 2.0
CREATION_DATE  = 
ORIGINATOR     = 

OBJECT_NAME    = STARLINK-36732
OBJECT_ID      = 2026-032S
CENTER_NAME    = EARTH
REF_FRAME      = TEME
TIME_SYSTEM    = UTC
MEAN_ELEMENT_THEORY = SGP/SGP4

EPOCH          = 2026-03-16T01:43:46.028064
MEAN_MOTION    = 15.75198600
ECCENTRICITY   = .00016816
INCLINATION    = 97.2836
RA_OF_ASC_NODE = 261.9557
ARG_OF_PERICENTER = 88.9095
MEAN_ANOMALY   = 271.2362

EPHEMERIS_TYPE = 0
CLASSIFICATION_TYPE = U
NORAD_CAT_ID   = 67813
ELEMENT_SET_NO = 999
REV_AT_EPOCH   = 579
BSTAR          = .94865908E-3
MEAN_MOTION_DOT = .143832E-2
MEAN_MOTION_DDOT = 0

CCSDS_OMM_VERS = 2.0
CREATION_DATE  = 
ORIGINATOR     = 

OBJECT_NAME    = STARLINK-36767
OBJECT_ID      = 2026-032T
CENTER_NAME    = EARTH
REF_FRAME      = TEME
TIME_SYSTEM    = UTC
MEAN_ELEMENT_THEORY = SGP/SGP4

EPOCH          = 2026-03-16T18:58:29.991360
MEAN_MOTION    = 15.75234037
ECCENTRICITY   = .0001244
INCLINATION    = 97.2814
RA_OF_ASC_NODE = 262.6598
ARG_OF_PERICENTER = 49.0064
MEAN_ANOMALY   = 311.1309

EPHEMERIS_TYPE = 0
CLASSIFICATION_TYPE = U
NORAD_CAT_ID   = 67814
ELEMENT_SET_NO = 999
REV_AT_EPOCH   = 590
BSTAR          = .13714E-2
MEAN_MOTION_DOT = .209934E-2
MEAN_MOTION_DDOT = 0

CCSDS_OMM_VERS = 2.0
CREATION_DATE  = 
ORIGINATOR     = 

OBJECT_NAME    = STARLINK-36797
OBJECT_ID      = 2026-032U
CENTER_NAME    = EARTH
REF_FRAME      = TEME
TIME_SYSTEM    = UTC
MEAN_ELEMENT_THEORY = SGP/SGP4

EPOCH          = 2026-03-16T18:45:47.718720
MEAN_MOTION    = 15.75317616
ECCENTRICITY   = .0002013
INCLINATION    = 97.2825
RA_OF_ASC_NODE = 262.6744
ARG_OF_PERICENTER = 91.9160
MEAN_ANOMALY   = 268.2336

EPHEMERIS_TYPE = 0
CLASSIFICATION_TYPE = U
NORAD_CAT_ID   = 67815
ELEMENT_SET_NO = 999
REV_AT_EPOCH   = 590
BSTAR          = .17038E-2
MEAN_MOTION_DOT = .263447E-2
MEAN_MOTION_DDOT = 0

CCSDS_OMM_VERS = 2.0
CREATION_DATE  = 
ORIGINATOR     = 

OBJECT_NAME    = STARLINK-36343
OBJECT_ID      = 2026-032V
CENTER_NAME    = EARTH
REF_FRAME      = TEME
TIME_SYSTEM    = UTC
MEAN_ELEMENT_THEORY = SGP/SGP4

EPOCH          = 2026-03-16T18:17:20.247360
MEAN_MOTION    = 15.75229171
ECCENTRICITY   = .0001366
INCLINATION    = 97.2838
RA_OF_ASC_NODE = 262.6992
ARG_OF_PERICENTER = 94.2963
MEAN_ANOMALY   = 265.8458

EPHEMERIS_TYPE = 0
CLASSIFICATION_TYPE = U
NORAD_CAT_ID   = 67816
ELEMENT_SET_NO = 999
REV_AT_EPOCH   = 590
BSTAR          = .12768E-2
MEAN_MOTION_DOT = .195056E-2
MEAN_MOTION_DDOT = 0

CCSDS_OMM_VERS = 2.0
CREATION_DATE  = 
ORIGINATOR     = 

OBJECT_NAME    = STARLINK-36756
OBJECT_ID      = 2026-032W
CENTER_NAME    = EARTH
REF_FRAME      = TEME
TIME_SYSTEM    = UTC
MEAN_ELEMENT_THEORY = SGP/SGP4

EPOCH          = 2026-03-16T01:46:48.579168
MEAN_MOTION    = 15.75258237
ECCENTRICITY   = .00010425
INCLINATION    = 97.2824
RA_OF_ASC_NODE = 261.9522
ARG_OF_PERICENTER = 110.1346
MEAN_ANOMALY   = 250.0032

EPHEMERIS_TYPE = 0
CLASSIFICATION_TYPE = U
NORAD_CAT_ID   = 67817
ELEMENT_SET_NO = 999
REV_AT_EPOCH   = 578
BSTAR          = .77018326E-3
MEAN_MOTION_DOT = .116672E-2
MEAN_MOTION_DDOT = 0

CCSDS_OMM_VERS = 2.0
CREATION_DATE  = 
ORIGINATOR     = 

OBJECT_NAME    = STARLINK-36346
OBJECT_ID      = 2026-032X
CENTER_NAME    = EARTH
REF_FRAME      = TEME
TIME_SYSTEM    = UTC
MEAN_ELEMENT_THEORY = SGP/SGP4

EPOCH          = 2026-03-16T05:59:24.372960
MEAN_MOTION    = 15.75308386
ECCENTRICITY   = .00030918
INCLINATION    = 97.2842
RA_OF_ASC_NODE = 262.1744
ARG_OF_PERICENTER = 47.7112
MEAN_ANOMALY   = 312.4415

EPHEMERIS_TYPE = 0
CLASSIFICATION_TYPE = U
NORAD_CAT_ID   = 67818
ELEMENT_SET_NO = 999
REV_AT_EPOCH   = 582
BSTAR          = .17210384E-2
MEAN_MOTION_DOT = .266117E-2
MEAN_MOTION_DDOT = 0

CCSDS_OMM_VERS = 2.0
CREATION_DATE  = 
ORIGINATOR     = 

OBJECT_NAME    = STARLINK-36788
OBJECT_ID      = 2026-032Y
CENTER_NAME    = EARTH
REF_FRAME      = TEME
TIME_SYSTEM    = UTC
MEAN_ELEMENT_THEORY = SGP/SGP4

EPOCH          = 2026-03-16T18:48:50.711328
MEAN_MOTION    = 15.75242245
ECCENTRICITY   = .0003362
INCLINATION    = 97.2820
RA_OF_ASC_NODE = 262.6704
ARG_OF_PERICENTER = 93.1738
MEAN_ANOMALY   = 266.9912

EPHEMERIS_TYPE = 0
CLASSIFICATION_TYPE = U
NORAD_CAT_ID   = 67819
ELEMENT_SET_NO = 999
REV_AT_EPOCH   = 590
BSTAR          = .16164E-2
MEAN_MOTION_DOT = .248718E-2
MEAN_MOTION_DDOT = 0

CCSDS_OMM_VERS = 2.0
CREATION_DATE  = 
ORIGINATOR     = 

OBJECT_NAME    = STARLINK-36353
OBJECT_ID      = 2026-032Z
CENTER_NAME    = EARTH
REF_FRAME      = TEME
TIME_SYSTEM    = UTC
MEAN_ELEMENT_THEORY = SGP/SGP4

EPOCH          = 2026-03-16T18:43:15.857760
MEAN_MOTION    = 15.75316788
ECCENTRICITY   = .0001323
INCLINATION    = 97.2828
RA_OF_ASC_NODE = 262.6757
ARG_OF_PERICENTER = 148.4738
MEAN_ANOMALY   = 211.6606

EPHEMERIS_TYPE = 0
CLASSIFICATION_TYPE = U
NORAD_CAT_ID   = 67820
ELEMENT_SET_NO = 999
REV_AT_EPOCH   = 590
BSTAR          = .16217E-2
MEAN_MOTION_DOT = .250348E-2
MEAN_MOTION_DDOT = 0

